SL-8 R/B                
1 11574U 79089B   26115.14649587  .00000206  00000+0  70187-4 0  9994
2 11574  74.0711   5.0472 0015654 169.1124 191.0374 14.42378828442803
SL-14 R/B               
1 11672U 80005B   26114.90120937  .00000474  00000+0  45369-4 0  9990
2 11672  82.5125 263.3847 0015989  14.8903 345.2784 14.90980402483377
SL-8 R/B                
1 12139U 81003B   26114.86394770  .00012179  00000+0  30251-3 0  9999
2 12139  82.9359 247.2585 0256259  18.2322 342.7887 15.12797613321652
SL-3 R/B                
1 12465U 81046B   26115.29435180  .00013259  00000+0  29729-3 0  9995
2 12465  81.2308 233.7262 0018460 214.7456 145.2583 15.43094457445615
SL-3 R/B                
1 12904U 81103B   26115.26386535  .00004629  00000+0  20205-3 0  9994
2 12904  81.1584 158.7866 0014307 127.2745 232.9794 15.21848214980312
SL-3 R/B                
1 13068U 82013B   26115.25428122  .00005009  00000+0  21432-3 0  9991
2 13068  81.1714 106.1680 0022677  26.4621 333.7763 15.22391190411437
SL-3 R/B                
1 13154U 82039B   26115.23513188  .00001497  00000+0  89108-4 0  9992
2 13154  81.1483 162.2703 0028380 166.0171 194.1847 15.10300030388663
SL-3 R/B                
1 13403U 82079B   26115.25016102  .00004606  00000+0  18038-3 0  9997
2 13403  81.1446 138.0804 0024256  11.9453 348.2350 15.25310919384795
SL-14 R/B               
1 13553U 82092B   26115.20979985  .00000431  00000+0  45501-4 0  9998
2 13553  82.5650  97.8700 0021275 143.2181 229.5127 14.86704797335847
SL-3 R/B                
1 13819U 83010B   26115.26374419  .00015016  00000+0  28814-3 0  9993
2 13819  81.1011 305.0753 0015152 243.0798 116.8900 15.47720996365140
SL-3 R/B                
1 14208U 83075B   26115.24194307  .00011574  00000+0  29488-3 0  9994
2 14208  97.6132 121.6220 0022903  65.9272 294.4366 15.39450256337317
COSMOS 1536             
1 14699U 84013A   26115.26758239  .00007662  00000+0  30982-3 0  9997
2 14699  82.5445  61.5178 0016117 114.9691 245.3222 15.24440137279711
SL-14 R/B               
1 14820U 84027B   26115.22260110  .00000389  00000+0  41576-4 0  9991
2 14820  82.5445 201.3788 0018133 174.5034 185.6385 14.86022069254548
SL-8 R/B                
1 15483U 85006B   26115.27635089  .00000180  00000+0  68394-4 0  9997
2 15483  74.0455 175.4276 0017198  77.5166 346.7023 14.37811496160723
SL-12 R/B(2)            
1 15772U 85042D   26115.14308909  .00000113  00000+0  72422-4 0  9995
2 15772  71.1096 349.5875 0033422  51.1758 117.0952 14.21994783120994
SL-14 R/B               
1 15945U 85069B   26115.12580241  .00000370  00000+0  38904-4 0  9997
2 15945  82.5275 341.2782 0019827  42.1608 318.1129 14.86476746179735
SL-16 R/B               
1 16182U 85097B   26115.25588359 -.00000211  00000+0 -81559-4 0  9994
2 16182  71.0044  42.5144 0008122 202.4499 310.8334 14.16606409 93820
