[{"OBJECT_NAME":"SL-8 R/B","OBJECT_ID":"1979-089B","EPOCH":"2026-04-25T03:30:57.243168","MEAN_MOTION":14.42378828,"ECCENTRICITY":0.00156548,"INCLINATION":74.0711,"RA_OF_ASC_NODE":5.0472,"ARG_OF_PERICENTER":169.1124,"MEAN_ANOMALY":191.0374,"EPHEMERIS_TYPE":0,"CLASSIFICATION_TYPE":"U","NORAD_CAT_ID":11574,"ELEMENT_SET_NO":999,"REV_AT_EPOCH":44280,"BSTAR":7.0186928e-5,"MEAN_MOTION_DOT":2.06e-6,"MEAN_MOTION_DDOT":0},{"OBJECT_NAME":"SL-14 R/B","OBJECT_ID":"1980-005B","EPOCH":"2026-04-24T21:37:44.489568","MEAN_MOTION":14.90980402,"ECCENTRICITY":0.0015989,"INCLINATION":82.5125,"RA_OF_ASC_NODE":263.3847,"ARG_OF_PERICENTER":14.8903,"MEAN_ANOMALY":345.2784,"EPHEMERIS_TYPE":0,"CLASSIFICATION_TYPE":"U","NORAD_CAT_ID":11672,"ELEMENT_SET_NO":999,"REV_AT_EPOCH":48337,"BSTAR":4.5369e-5,"MEAN_MOTION_DOT":4.74e-6,"MEAN_MOTION_DDOT":0},{"OBJECT_NAME":"SL-8 R/B","OBJECT_ID":"1981-003B","EPOCH":"2026-04-24T20:44:05.081280","MEAN_MOTION":15.12797613,"ECCENTRICITY":0.02562599,"INCLINATION":82.9359,"RA_OF_ASC_NODE":247.2585,"ARG_OF_PERICENTER":18.2322,"MEAN_ANOMALY":342.7887,"EPHEMERIS_TYPE":0,"CLASSIFICATION_TYPE":"U","NORAD_CAT_ID":12139,"ELEMENT_SET_NO":999,"REV_AT_EPOCH":32165,"BSTAR":0.00030250592,"MEAN_MOTION_DOT":0.00012179,"MEAN_MOTION_DDOT":0},{"OBJECT_NAME":"SL-3 R/B","OBJECT_ID":"1981-046B","EPOCH":"2026-04-25T07:03:51.995520","MEAN_MOTION":15.43094457,"ECCENTRICITY":0.00184602,"INCLINATION":81.2308,"RA_OF_ASC_NODE":233.7262,"ARG_OF_PERICENTER":214.7456,"MEAN_ANOMALY":145.2583,"EPHEMERIS_TYPE":0,"CLASSIFICATION_TYPE":"U","NORAD_CAT_ID":12465,"ELEMENT_SET_NO":999,"REV_AT_EPOCH":44561,"BSTAR":0.00029728695,"MEAN_MOTION_DOT":0.00013259,"MEAN_MOTION_DDOT":0},{"OBJECT_NAME":"SL-3 R/B","OBJECT_ID":"1981-103B","EPOCH":"2026-04-25T06:19:57.966240","MEAN_MOTION":15.21848214,"ECCENTRICITY":0.00143073,"INCLINATION":81.1584,"RA_OF_ASC_NODE":158.7866,"ARG_OF_PERICENTER":127.2745,"MEAN_ANOMALY":232.9794,"EPHEMERIS_TYPE":0,"CLASSIFICATION_TYPE":"U","NORAD_CAT_ID":12904,"ELEMENT_SET_NO":999,"REV_AT_EPOCH":98031,"BSTAR":0.00020204555,"MEAN_MOTION_DOT":4.629e-5,"MEAN_MOTION_DDOT":0},{"OBJECT_NAME":"SL-3 R/B","OBJECT_ID":"1982-013B","EPOCH":"2026-04-25T06:06:09.897408","MEAN_MOTION":15.2239119,"ECCENTRICITY":0.00226773,"INCLINATION":81.1714,"RA_OF_ASC_NODE":106.168,"ARG_OF_PERICENTER":26.4621,"MEAN_ANOMALY":333.7763,"EPHEMERIS_TYPE":0,"CLASSIFICATION_TYPE":"U","NORAD_CAT_ID":13068,"ELEMENT_SET_NO":999,"REV_AT_EPOCH":41143,"BSTAR":0.00021431681,"MEAN_MOTION_DOT":5.009e-5,"MEAN_MOTION_DDOT":0},{"OBJECT_NAME":"SL-3 R/B","OBJECT_ID":"1982-039B","EPOCH":"2026-04-25T05:38:35.394432","MEAN_MOTION":15.1030003,"ECCENTRICITY":0.00283803,"INCLINATION":81.1483,"RA_OF_ASC_NODE":162.2703,"ARG_OF_PERICENTER":166.0171,"MEAN_ANOMALY":194.1847,"EPHEMERIS_TYPE":0,"CLASSIFICATION_TYPE":"U","NORAD_CAT_ID":13154,"ELEMENT_SET_NO":999,"REV_AT_EPOCH":38866,"BSTAR":8.9108067e-5,"MEAN_MOTION_DOT":1.497e-5,"MEAN_MOTION_DDOT":0},{"OBJECT_NAME":"SL-3 R/B","OBJECT_ID":"1982-079B","EPOCH":"2026-04-25T06:00:13.912128","MEAN_MOTION":15.25310919,"ECCENTRICITY":0.00242562,"INCLINATION":81.1446,"RA_OF_ASC_NODE":138.0804,"ARG_OF_PERICENTER":11.9453,"MEAN_ANOMALY":348.235,"EPHEMERIS_TYPE":0,"CLASSIFICATION_TYPE":"U","NORAD_CAT_ID":13403,"ELEMENT_SET_NO":999,"REV_AT_EPOCH":38479,"BSTAR":0.00018037599,"MEAN_MOTION_DOT":4.606e-5,"MEAN_MOTION_DDOT":0},{"OBJECT_NAME":"SL-14 R/B","OBJECT_ID":"1982-092B","EPOCH":"2026-04-25T05:02:06.707040","MEAN_MOTION":14.86704797,"ECCENTRICITY":0.00212759,"INCLINATION":82.565,"RA_OF_ASC_NODE":97.87,"ARG_OF_PERICENTER":143.2181,"MEAN_ANOMALY":229.5127,"EPHEMERIS_TYPE":0,"CLASSIFICATION_TYPE":"U","NORAD_CAT_ID":13553,"ELEMENT_SET_NO":999,"REV_AT_EPOCH":33584,"BSTAR":4.5500582e-5,"MEAN_MOTION_DOT":4.31e-6,"MEAN_MOTION_DDOT":0},{"OBJECT_NAME":"SL-3 R/B","OBJECT_ID":"1983-010B","EPOCH":"2026-04-25T06:19:47.498016","MEAN_MOTION":15.47720996,"ECCENTRICITY":0.00151529,"INCLINATION":81.1011,"RA_OF_ASC_NODE":305.0753,"ARG_OF_PERICENTER":243.0798,"MEAN_ANOMALY":116.89,"EPHEMERIS_TYPE":0,"CLASSIFICATION_TYPE":"U","NORAD_CAT_ID":13819,"ELEMENT_SET_NO":999,"REV_AT_EPOCH":36514,"BSTAR":0.00028813723,"MEAN_MOTION_DOT":0.00015016,"MEAN_MOTION_DDOT":0},{"OBJECT_NAME":"SL-3 R/B","OBJECT_ID":"1983-075B","EPOCH":"2026-04-25T05:48:23.881248","MEAN_MOTION":15.39450256,"ECCENTRICITY":0.00229035,"INCLINATION":97.6132,"RA_OF_ASC_NODE":121.622,"ARG_OF_PERICENTER":65.9272,"MEAN_ANOMALY":294.4366,"EPHEMERIS_TYPE":0,"CLASSIFICATION_TYPE":"U","NORAD_CAT_ID":14208,"ELEMENT_SET_NO":999,"REV_AT_EPOCH":33731,"BSTAR":0.00029488364,"MEAN_MOTION_DOT":0.00011574,"MEAN_MOTION_DDOT":0},{"OBJECT_NAME":"COSMOS 1536","OBJECT_ID":"1984-013A","EPOCH":"2026-04-25T06:25:19.118496","MEAN_MOTION":15.24440137,"ECCENTRICITY":0.0016117,"INCLINATION":82.5445,"RA_OF_ASC_NODE":61.5178,"ARG_OF_PERICENTER":114.9691,"MEAN_ANOMALY":245.3222,"EPHEMERIS_TYPE":0,"CLASSIFICATION_TYPE":"U","NORAD_CAT_ID":14699,"ELEMENT_SET_NO":999,"REV_AT_EPOCH":27971,"BSTAR":0.00030982385,"MEAN_MOTION_DOT":7.662e-5,"MEAN_MOTION_DDOT":0},{"OBJECT_NAME":"SL-14 R/B","OBJECT_ID":"1984-027B","EPOCH":"2026-04-25T05:20:32.735040","MEAN_MOTION":14.86022069,"ECCENTRICITY":0.00181334,"INCLINATION":82.5445,"RA_OF_ASC_NODE":201.3788,"ARG_OF_PERICENTER":174.5034,"MEAN_ANOMALY":185.6385,"EPHEMERIS_TYPE":0,"CLASSIFICATION_TYPE":"U","NORAD_CAT_ID":14820,"ELEMENT_SET_NO":999,"REV_AT_EPOCH":25454,"BSTAR":4.1575548e-5,"MEAN_MOTION_DOT":3.89e-6,"MEAN_MOTION_DDOT":0},{"OBJECT_NAME":"SL-8 R/B","OBJECT_ID":"1985-006B","EPOCH":"2026-04-25T06:37:56.716896","MEAN_MOTION":14.37811496,"ECCENTRICITY":0.0017198,"INCLINATION":74.0455,"RA_OF_ASC_NODE":175.4276,"ARG_OF_PERICENTER":77.5166,"MEAN_ANOMALY":346.7023,"EPHEMERIS_TYPE":0,"CLASSIFICATION_TYPE":"U","NORAD_CAT_ID":15483,"ELEMENT_SET_NO":999,"REV_AT_EPOCH":16072,"BSTAR":6.8393765e-5,"MEAN_MOTION_DOT":1.8e-6,"MEAN_MOTION_DDOT":0},{"OBJECT_NAME":"SL-12 R/B(2)","OBJECT_ID":"1985-042D","EPOCH":"2026-04-25T03:26:02.897376","MEAN_MOTION":14.21994783,"ECCENTRICITY":0.00334228,"INCLINATION":71.1096,"RA_OF_ASC_NODE":349.5875,"ARG_OF_PERICENTER":51.1758,"MEAN_ANOMALY":117.0952,"EPHEMERIS_TYPE":0,"CLASSIFICATION_TYPE":"U","NORAD_CAT_ID":15772,"ELEMENT_SET_NO":999,"REV_AT_EPOCH":12099,"BSTAR":7.2422429e-5,"MEAN_MOTION_DOT":1.13e-6,"MEAN_MOTION_DDOT":0},{"OBJECT_NAME":"SL-14 R/B","OBJECT_ID":"1985-069B","EPOCH":"2026-04-25T03:01:09.328224","MEAN_MOTION":14.86476746,"ECCENTRICITY":0.00198273,"INCLINATION":82.5275,"RA_OF_ASC_NODE":341.2782,"ARG_OF_PERICENTER":42.1608,"MEAN_ANOMALY":318.1129,"EPHEMERIS_TYPE":0,"CLASSIFICATION_TYPE":"U","NORAD_CAT_ID":15945,"ELEMENT_SET_NO":999,"REV_AT_EPOCH":17973,"BSTAR":3.8904002e-5,"MEAN_MOTION_DOT":3.7e-6,"MEAN_MOTION_DDOT":0},{"OBJECT_NAME":"SL-16 R/B","OBJECT_ID":"1985-097B","EPOCH":"2026-04-25T06:08:28.342176","MEAN_MOTION":14.16606409,"ECCENTRICITY":0.00081225,"INCLINATION":71.0044,"RA_OF_ASC_NODE":42.5144,"ARG_OF_PERICENTER":202.4499,"MEAN_ANOMALY":310.8334,"EPHEMERIS_TYPE":0,"CLASSIFICATION_TYPE":"U","NORAD_CAT_ID":16182,"ELEMENT_SET_NO":999,"REV_AT_EPOCH":9382,"BSTAR":-8.1558862e-5,"MEAN_MOTION_DOT":-2.11e-6,"MEAN_MOTION_DDOT":0}]
